COSMOS 2433 (720)       
1 32275U 07052A   23075.46948439 -.00000070  00000+0  00000+0 0  9993
2 32275  66.0566 355.6409 0003289 285.7022 216.8251  2.13104115119767
COSMOS 2432 (719)       
1 32276U 07052B   23073.82930263 -.00000065  00000+0  00000+0 0  9992
2 32276  66.0720 355.8018 0012004 328.5960 303.1943  2.13103455119720
COSMOS 2434 (721)       
1 32393U 07065A   23075.21973208  .00000065  00000+0  00000+0 0  9996
2 32393  64.3507 232.1592 0004958  77.2693 124.1915  2.13103111118467
COSMOS 2436 (723)       
1 32395U 07065C   23075.56892524  .00000060  00000+0  00000+0 0  9992
2 32395  64.3580 232.2070 0016775   8.4947 236.4928  2.13102938118401
COSMOS 2456 (730)       
1 36111U 09070A   23075.30289545  .00000053  00000+0  00000+0 0  9997
2 36111  64.4288 111.7150 0005413 297.0232 129.9247  2.13099179103133
COSMOS 2457 (733)       
1 36112U 09070B   23075.03353941  .00000051  00000+0  00000+0 0  9998
2 36112  64.4128 111.5946 0004547 191.3460 158.4105  2.13101387103128
COSMOS 2460 (732)       
1 36402U 10007C   23075.22158141 -.00000069  00000+0  00000+0 0  9998
2 36402  65.9235 354.3946 0002349 349.7286 130.7213  2.13106355101485
COSMOS 2476 (744)       
1 37867U 11064A   23075.40047388  .00000053  00000+0  00000+0 0  9990
2 37867  64.7147 113.1730 0023662 239.1231 170.5447  2.13101863 88489
COSMOS 2477 (745)       
1 37868U 11064B   23075.20997207  .00000052  00000+0  00000+0 0  9992
2 37868  64.7215 113.2474 0021003 240.3075 201.1713  2.13101710 88432
COSMOS 2475 (743)       
1 37869U 11064C   23075.10017580  .00000051  00000+0  00000+0 0  9998
2 37869  64.7293 113.2642 0025486 255.3995  60.1134  2.13101910 88434
COSMOS 2485 (747)       
1 39155U 13019A   23075.34900072  .00000053  00000+0  00000+0 0  9995
2 39155  64.8759 113.6614 0023944 235.1231 179.4184  2.13101876 76955
COSMOS 2492 (754)       
1 39620U 14012A   23075.35839241 -.00000070  00000+0  00000+0 0  9996
2 39620  65.8086 354.0328 0014923 325.2256 130.8285  2.13103268 69901
COSMOS 2500 (755)       
1 40001U 14032A   23075.85521203 -.00000071  00000+0  00000+0 0  9995
2 40001  65.7467 353.8573 0004996 220.2229 114.8826  2.13102558 68127
COSMOS 2501 (702K)      
1 40315U 14075A   23075.26286424  .00000062  00000+0  00000+0 0  9997
2 40315  63.6544 231.6625 0017400 204.1881 205.7884  2.13101421 64520
COSMOS 2514 (751)       
1 41330U 16008A   23075.17812014 -.00000069  00000+0  00000+0 0  9991
2 41330  65.5446 353.5040 0008395 220.5861 139.3751  2.13102567 55288
COSMOS 2516 (753)       
1 41554U 16032A   23075.29751792  .00000062  00000+0  00000+0 0  9996
2 41554  63.8816 232.0140 0014226 211.9421 147.9524  2.13106334 52899
COSMOS 2522 (752)       
1 42939U 17055A   23075.24114301  .00000064  00000+0  00000+0 0  9996
2 42939  64.1165 232.4902 0005240 234.4168 294.5369  2.13101941 42649
COSMOS 2527 (756)       
1 43508U 18053A   23075.59492640  .00000055  00000+0  00000+0 0  9991
2 43508  65.0389 113.7107 0009667 239.0413 233.2725  2.13102655 36944
COSMOS 2529 (757)       
1 43687U 18086A   23075.24800296  .00000065  00000+0  00000+0 0  9998
2 43687  64.3299 232.8795 0006897 268.7008 220.9948  2.13102161 33951
COSMOS 2534 (758)       
1 44299U 19030A   23075.34146922  .00000064  00000+0  00000+0 0  9997
2 44299  64.4046 232.7859 0009952 294.2011  41.5295  2.13102005 29599
COSMOS 2544 (759)       
1 44850U 19088A   23075.49438367  .00000055  00000+0  16595+1 0  9993
2 44850  65.0233 113.5626 0014572 259.7358 178.6789  2.13102382 25379
COSMOS 2545 (760)       
1 45358U 20018A   23075.27831617 -.00000070  00000+0  00000+0 0  9994
2 45358  64.8848 353.8866 0009291 261.2629 220.5525  2.13102691 23329
COSMOS 2547 (705K)      
1 46805U 20075A   23075.31747491  .00000064  00000+0  00000+0 0  9998
2 46805  64.6289 232.2923 0005331 239.2015 126.7278  2.13103119 18572
COSMOS 2557 (706K)      
1 52984U 22075A   23075.37466330 -.00000072  00000+0  10000-3 0  9996
2 52984  64.7944 356.0600 0013102 288.4438 357.8760  2.13101795  5367
COSMOS 2559 (707K)      
1 54031U 22130A   23075.55097260 -.00000072  00000+0  00000+0 0  9990
2 54031  64.7658 356.1882 0005561 237.4367 229.2156  2.13100981  3356
COSMOS 2564 (761)       
1 54377U 22161A   23075.36008503  .00000064  00000+0  00000+0 0  9998
2 54377  64.7691 232.3129 0006986 209.1748 321.7327  2.13102199  2299
